DELTA 2 R/B(1)          
1 20453U 90008B   26001.05876720  .00068201  00000+0  10336-2 0  9996
2 20453  35.6058 255.6240 0106818 353.5547   6.3809 15.47080121915621
COSMOS 2058             
1 20465U 90010A   25365.76946303  .00007674  00000+0  46146-3 0  9993
2 20465  82.4717 114.3140 0009951 203.7098 156.3675 15.10680285931984
SL-14 R/B               
1 20466U 90010B   25365.90147672  .00000829  00000+0  97617-4 0  9997
2 20466  82.5029 331.0501 0020300 158.9904 201.2150 14.83492826918433
SL-14 R/B               
1 20511U 90018B   26001.19159666  .00000852  00000+0  10414-3 0  9996
2 20511  82.5220 286.1854 0015392 318.4414  41.5629 14.82070590912587
HST                     
1 20580U 90037B   25365.46963674  .00010357  00000+0  35671-3 0  9990
2 20580  28.4654 144.9753 0002589  81.6209 278.4680 15.28310253762863
SL-16 R/B               
1 20625U 90046B   26001.18634714  .00000235  00000+0  14565-3 0  9990
2 20625  70.9993  79.6828 0012624  40.4600 319.7459 14.14999029838840
COSMOS 2084             
1 20663U 90055A   25365.90202634  .00004821  00000+0  34775-3 0  9996
2 20663  62.7891 206.6952 0028586 177.4549 182.6702 15.05146157926118
SL-6 R/B(2)             
1 20666U 90055D   25365.66078962  .00004652  00000+0  35589-3 0  9993
2 20666  62.7835 125.1202 0015026 321.0536  38.9479 15.03182797927966
SL-8 R/B                
1 20775U 90078B   25365.91837262  .00018629  00000+0  57233-3 0  9992
2 20775  82.9057 312.1345 0369459 241.3007 115.0616 14.86626700799225
SL-8 R/B                
1 21088U 91006B   26001.15642443  .00000054  00000+0  39324-4 0  9996
2 21088  82.9409 220.2699 0021558 222.3182 256.2935 13.77492793754778
OKEAN-3                 
1 21397U 91039A   26001.17349252  .00005381  00000+0  38427-3 0  9999
2 21397  82.5157  42.2339 0013850 193.5168 166.5689 15.04253273854881
COSMOS 2151             
1 21422U 91042A   26001.10562534  .00003452  00000+0  27688-3 0  9999
2 21422  82.4968 148.8401 0011253 289.7013  70.2996 14.99779640853069
