CCSDS_OMM_VERS = 2.0
CREATION_DATE  = 
ORIGINATOR     = 

OBJECT_NAME    = DELTA 2 R/B(1)
OBJECT_ID      = 1990-008B
CENTER_NAME    = EARTH
REF_FRAME      = TEME
TIME_SYSTEM    = UTC
MEAN_ELEMENT_THEORY = SGP/SGP4

EPOCH          = 2026-01-01T01:24:37.486080
MEAN_MOTION    = 15.47080121
ECCENTRICITY   = .0106818
INCLINATION    = 35.6058
RA_OF_ASC_NODE = 255.6240
ARG_OF_PERICENTER = 353.5547
MEAN_ANOMALY   = 6.3809

EPHEMERIS_TYPE = 0
CLASSIFICATION_TYPE = U
NORAD_CAT_ID   = 20453
ELEMENT_SET_NO = 999
REV_AT_EPOCH   = 91562
BSTAR          = .10336E-2
MEAN_MOTION_DOT = .68201E-3
MEAN_MOTION_DDOT = 0

CCSDS_OMM_VERS = 2.0
CREATION_DATE  = 
ORIGINATOR     = 

OBJECT_NAME    = COSMOS 2058
OBJECT_ID      = 1990-010A
CENTER_NAME    = EARTH
REF_FRAME      = TEME
TIME_SYSTEM    = UTC
MEAN_ELEMENT_THEORY = SGP/SGP4

EPOCH          = 2025-12-31T18:28:01.605792
MEAN_MOTION    = 15.10680285
ECCENTRICITY   = .0009951
INCLINATION    = 82.4717
RA_OF_ASC_NODE = 114.3140
ARG_OF_PERICENTER = 203.7098
MEAN_ANOMALY   = 156.3675

EPHEMERIS_TYPE = 0
CLASSIFICATION_TYPE = U
NORAD_CAT_ID   = 20465
ELEMENT_SET_NO = 999
REV_AT_EPOCH   = 93198
BSTAR          = .46146248E-3
MEAN_MOTION_DOT = .7674E-4
MEAN_MOTION_DDOT = 0

CCSDS_OMM_VERS = 2.0
CREATION_DATE  = 
ORIGINATOR     = 

OBJECT_NAME    = SL-14 R/B
OBJECT_ID      = 1990-010B
CENTER_NAME    = EARTH
REF_FRAME      = TEME
TIME_SYSTEM    = UTC
MEAN_ELEMENT_THEORY = SGP/SGP4

EPOCH          = 2025-12-31T21:38:07.588608
MEAN_MOTION    = 14.83492826
ECCENTRICITY   = .00203
INCLINATION    = 82.5029
RA_OF_ASC_NODE = 331.0501
ARG_OF_PERICENTER = 158.9904
MEAN_ANOMALY   = 201.2150

EPHEMERIS_TYPE = 0
CLASSIFICATION_TYPE = U
NORAD_CAT_ID   = 20466
ELEMENT_SET_NO = 999
REV_AT_EPOCH   = 91843
BSTAR          = .97617E-4
MEAN_MOTION_DOT = .829E-5
MEAN_MOTION_DDOT = 0

CCSDS_OMM_VERS = 2.0
CREATION_DATE  = 
ORIGINATOR     = 

OBJECT_NAME    = SL-14 R/B
OBJECT_ID      = 1990-018B
CENTER_NAME    = EARTH
REF_FRAME      = TEME
TIME_SYSTEM    = UTC
MEAN_ELEMENT_THEORY = SGP/SGP4

EPOCH          = 2026-01-01T04:35:53.951424
MEAN_MOTION    = 14.82070590
ECCENTRICITY   = .0015392
INCLINATION    = 82.5220
RA_OF_ASC_NODE = 286.1854
ARG_OF_PERICENTER = 318.4414
MEAN_ANOMALY   = 41.5629

EPHEMERIS_TYPE = 0
CLASSIFICATION_TYPE = U
NORAD_CAT_ID   = 20511
ELEMENT_SET_NO = 999
REV_AT_EPOCH   = 91258
BSTAR          = .10414E-3
MEAN_MOTION_DOT = .852E-5
MEAN_MOTION_DDOT = 0

CCSDS_OMM_VERS = 2.0
CREATION_DATE  = 
ORIGINATOR     = 

OBJECT_NAME    = HST
OBJECT_ID      = 1990-037B
CENTER_NAME    = EARTH
REF_FRAME      = TEME
TIME_SYSTEM    = UTC
MEAN_ELEMENT_THEORY = SGP/SGP4

EPOCH          = 2025-12-31T11:16:16.614336
MEAN_MOTION    = 15.28310253
ECCENTRICITY   = .0002589
INCLINATION    = 28.4654
RA_OF_ASC_NODE = 144.9753
ARG_OF_PERICENTER = 81.6209
MEAN_ANOMALY   = 278.4680

EPHEMERIS_TYPE = 0
CLASSIFICATION_TYPE = U
NORAD_CAT_ID   = 20580
ELEMENT_SET_NO = 999
REV_AT_EPOCH   = 76286
BSTAR          = .35671E-3
MEAN_MOTION_DOT = .10357E-3
MEAN_MOTION_DDOT = 0

CCSDS_OMM_VERS = 2.0
CREATION_DATE  = 
ORIGINATOR     = 

OBJECT_NAME    = SL-16 R/B
OBJECT_ID      = 1990-046B
CENTER_NAME    = EARTH
REF_FRAME      = TEME
TIME_SYSTEM    = UTC
MEAN_ELEMENT_THEORY = SGP/SGP4

EPOCH          = 2026-01-01T04:28:20.392896
MEAN_MOTION    = 14.14999029
ECCENTRICITY   = .0012624
INCLINATION    = 70.9993
RA_OF_ASC_NODE = 79.6828
ARG_OF_PERICENTER = 40.4600
MEAN_ANOMALY   = 319.7459

EPHEMERIS_TYPE = 0
CLASSIFICATION_TYPE = U
NORAD_CAT_ID   = 20625
ELEMENT_SET_NO = 999
REV_AT_EPOCH   = 83884
BSTAR          = .14565E-3
MEAN_MOTION_DOT = .235E-5
MEAN_MOTION_DDOT = 0

CCSDS_OMM_VERS = 2.0
CREATION_DATE  = 
ORIGINATOR     = 

OBJECT_NAME    = COSMOS 2084
OBJECT_ID      = 1990-055A
CENTER_NAME    = EARTH
REF_FRAME      = TEME
TIME_SYSTEM    = UTC
MEAN_ELEMENT_THEORY = SGP/SGP4

EPOCH          = 2025-12-31T21:38:55.075776
MEAN_MOTION    = 15.05146157
ECCENTRICITY   = .0028586
INCLINATION    = 62.7891
RA_OF_ASC_NODE = 206.6952
ARG_OF_PERICENTER = 177.4549
MEAN_ANOMALY   = 182.6702

EPHEMERIS_TYPE = 0
CLASSIFICATION_TYPE = U
NORAD_CAT_ID   = 20663
ELEMENT_SET_NO = 999
REV_AT_EPOCH   = 92611
BSTAR          = .34775E-3
MEAN_MOTION_DOT = .4821E-4
MEAN_MOTION_DDOT = 0

CCSDS_OMM_VERS = 2.0
CREATION_DATE  = 
ORIGINATOR     = 

OBJECT_NAME    = SL-6 R/B(2)
OBJECT_ID      = 1990-055D
CENTER_NAME    = EARTH
REF_FRAME      = TEME
TIME_SYSTEM    = UTC
MEAN_ELEMENT_THEORY = SGP/SGP4

EPOCH          = 2025-12-31T15:51:32.223168
MEAN_MOTION    = 15.03182797
ECCENTRICITY   = .00150265
INCLINATION    = 62.7835
RA_OF_ASC_NODE = 125.1202
ARG_OF_PERICENTER = 321.0536
MEAN_ANOMALY   = 38.9479

EPHEMERIS_TYPE = 0
CLASSIFICATION_TYPE = U
NORAD_CAT_ID   = 20666
ELEMENT_SET_NO = 999
REV_AT_EPOCH   = 92796
BSTAR          = .35589026E-3
MEAN_MOTION_DOT = .4652E-4
MEAN_MOTION_DDOT = 0

CCSDS_OMM_VERS = 2.0
CREATION_DATE  = 
ORIGINATOR     = 

OBJECT_NAME    = SL-8 R/B
OBJECT_ID      = 1990-078B
CENTER_NAME    = EARTH
REF_FRAME      = TEME
TIME_SYSTEM    = UTC
MEAN_ELEMENT_THEORY = SGP/SGP4

EPOCH          = 2025-12-31T22:02:27.394368
MEAN_MOTION    = 14.86626700
ECCENTRICITY   = .0369459
INCLINATION    = 82.9057
RA_OF_ASC_NODE = 312.1345
ARG_OF_PERICENTER = 241.3007
MEAN_ANOMALY   = 115.0616

EPHEMERIS_TYPE = 0
CLASSIFICATION_TYPE = U
NORAD_CAT_ID   = 20775
ELEMENT_SET_NO = 999
REV_AT_EPOCH   = 79922
BSTAR          = .57233E-3
MEAN_MOTION_DOT = .18629E-3
MEAN_MOTION_DDOT = 0

CCSDS_OMM_VERS = 2.0
CREATION_DATE  = 
ORIGINATOR     = 

OBJECT_NAME    = SL-8 R/B
OBJECT_ID      = 1991-006B
CENTER_NAME    = EARTH
REF_FRAME      = TEME
TIME_SYSTEM    = UTC
MEAN_ELEMENT_THEORY = SGP/SGP4

EPOCH          = 2026-01-01T03:45:15.070752
MEAN_MOTION    = 13.77492793
ECCENTRICITY   = .0021558
INCLINATION    = 82.9409
RA_OF_ASC_NODE = 220.2699
ARG_OF_PERICENTER = 222.3182
MEAN_ANOMALY   = 256.2935

EPHEMERIS_TYPE = 0
CLASSIFICATION_TYPE = U
NORAD_CAT_ID   = 21088
ELEMENT_SET_NO = 999
REV_AT_EPOCH   = 75477
BSTAR          = .39324E-4
MEAN_MOTION_DOT = .54E-6
MEAN_MOTION_DDOT = 0

CCSDS_OMM_VERS = 2.0
CREATION_DATE  = 
ORIGINATOR     = 

OBJECT_NAME    = OKEAN-3
OBJECT_ID      = 1991-039A
CENTER_NAME    = EARTH
REF_FRAME      = TEME
TIME_SYSTEM    = UTC
MEAN_ELEMENT_THEORY = SGP/SGP4

EPOCH          = 2026-01-01T04:09:49.753728
MEAN_MOTION    = 15.04253273
ECCENTRICITY   = .001385
INCLINATION    = 82.5157
RA_OF_ASC_NODE = 42.2339
ARG_OF_PERICENTER = 193.5168
MEAN_ANOMALY   = 166.5689

EPHEMERIS_TYPE = 0
CLASSIFICATION_TYPE = U
NORAD_CAT_ID   = 21397
ELEMENT_SET_NO = 999
REV_AT_EPOCH   = 85488
BSTAR          = .38427E-3
MEAN_MOTION_DOT = .5381E-4
MEAN_MOTION_DDOT = 0

CCSDS_OMM_VERS = 2.0
CREATION_DATE  = 
ORIGINATOR     = 

OBJECT_NAME    = COSMOS 2151
OBJECT_ID      = 1991-042A
CENTER_NAME    = EARTH
REF_FRAME      = TEME
TIME_SYSTEM    = UTC
MEAN_ELEMENT_THEORY = SGP/SGP4

EPOCH          = 2026-01-01T02:32:06.029376
MEAN_MOTION    = 14.99779640
ECCENTRICITY   = .0011253
INCLINATION    = 82.4968
RA_OF_ASC_NODE = 148.8401
ARG_OF_PERICENTER = 289.7013
MEAN_ANOMALY   = 70.2996

EPHEMERIS_TYPE = 0
CLASSIFICATION_TYPE = U
NORAD_CAT_ID   = 21422
ELEMENT_SET_NO = 999
REV_AT_EPOCH   = 85306
BSTAR          = .27688E-3
MEAN_MOTION_DOT = .3452E-4
MEAN_MOTION_DDOT = 0

